KUIPER-00079            
1 64826U 25151L   25225.58335648 -.00668925  00000+0 -23613-1 0  9991
2 64826  51.8804 151.0775 0005053 235.9427 150.8350 15.31117238  3888
KUIPER-00080            
1 64827U 25151M   25225.58335648  .00050332  00000+0  16282-2 0  9992
2 64827  51.8807 151.1370 0003027 246.9947 126.1709 15.31561429  4499
KUIPER-00082            
1 64828U 25151N   25225.50907104  .00033681  00000+0  94946-3 0  9999
2 64828  51.8793 151.4013 0005349 239.0636 120.9824 15.36100239  4334
KUIPER-00083            
1 64829U 25151P   25225.32096076  .00035114  00000+0  10025-2 0  9995
2 64829  51.8783 152.3862 0004732 244.2569 115.7929 15.35685470  5494
KUIPER-00084            
1 64830U 25151Q   25225.58335648 -.01122772  00000+0 -55975-1 0  9998
2 64830  51.8862 151.9882 0006547 248.6238  37.5988 15.19776822  4060
KUIPER-00085            
1 64831U 25151R   25225.50677565  .00028131  00000+0  79297-3 0  9994
2 64831  51.8793 151.3887 0006282 237.7279 122.3099 15.36189713  4335
KUIPER-00086            
1 64832U 25151S   25225.51885589  .00027071  00000+0  77987-3 0  9999
2 64832  51.8774 151.4640 0005511 258.7500 101.2866 15.35533601  4333
KUIPER-00087            
1 64833U 25151T   25225.31577194  .00036592  00000+0  10353-2 0  9999
2 64833  51.8777 152.3584 0004667 228.5113 131.5473 15.35948903  4302
